MALLIGYONG-1            
1 58400U 23179A   23356.92307981  .00007958  00000+0  35460-3 0  9996
2 58400  97.4264 241.2858 0016061 162.2218 197.9583 15.21583338  4765
